ORBCOMM FM24            
1 25478U 98053D   25063.95196665  .00001930  00000+0  68357-3 0  9998
2 25478  45.0081  43.1822 0002132 355.8854   4.1976 14.37648291382445
ORBCOMM FM25            
1 25479U 98053E   25063.64356991  .00002122  00000+0  74697-3 0  9993
2 25479  45.0075  42.9017 0003107  47.4528 312.6582 14.37629365382695
ORBCOMM FM26            
1 25480U 98053F   25063.65811102  .00001917  00000+0  69156-3 0  9991
2 25480  45.0073  38.5606 0004187  86.1997 273.9329 14.36756592382611
ORBCOMM FM27            
1 25481U 98053G   25063.63286628  .00002191  00000+0  76969-3 0  9994
2 25481  45.0059  43.1881 0002099 313.9739  46.0935 14.37636732382625
ORBCOMM FM28            
1 25482U 98053H   25063.89442176  .00001576  00000+0  56410-3 0  9990
2 25482  45.0066 339.6207 0003282 119.8249 240.2926 14.37890572383345
ORBCOMM FM30            
1 25980U 99065A   25063.86828050  .00001790  00000+0  64656-3 0  9992
2 25980  45.0301 223.3733 0007396 202.2791 157.7737 14.36916227319449
ORBCOMM FM31            
1 25981U 99065B   25063.83787935  .00002048  00000+0  73370-3 0  9996
2 25981  45.0213 217.0402 0004739 221.2511 138.7979 14.36877699318999
ORBCOMM FM32            
1 25982U 99065C   25063.88420315  .00001693  00000+0  62649-3 0  9990
2 25982  45.0141 232.6944 0006486 220.8121 139.2241 14.35918377319736
